[{"OBJECT_NAME":"STARLINK-34935","OBJECT_ID":"2025-184E","EPOCH":"2026-03-09T22:51:52.994016","MEAN_MOTION":15.05649777,"ECCENTRICITY":0.00011009,"INCLINATION":97.6036,"RA_OF_ASC_NODE":122.9671,"ARG_OF_PERICENTER":97.5253,"MEAN_ANOMALY":262.6099,"EPHEMERIS_TYPE":0,"CLASSIFICATION_TYPE":"U","NORAD_CAT_ID":65277,"ELEMENT_SET_NO":999,"REV_AT_EPOCH":3134,"BSTAR":0.00023691638,"MEAN_MOTION_DOT":3.359e-5,"MEAN_MOTION_DDOT":0},{"OBJECT_NAME":"IRIDIUM 33 DEB","OBJECT_ID":"1997-051QE","EPOCH":"2026-03-07T09:35:18.798432","MEAN_MOTION":15.07266806,"ECCENTRICITY":0.0013423,"INCLINATION":86.3519,"RA_OF_ASC_NODE":312.8742,"ARG_OF_PERICENTER":171.2899,"MEAN_ANOMALY":188.8573,"EPHEMERIS_TYPE":0,"CLASSIFICATION_TYPE":"U","NORAD_CAT_ID":35484,"ELEMENT_SET_NO":999,"REV_AT_EPOCH":63287,"BSTAR":0.0040001,"MEAN_MOTION_DOT":0.00060878,"MEAN_MOTION_DDOT":0}]
